     2.01           GLONASS NAV DATA                        RINEX VERSION / TYPE
CCRINEXG V1.4 UX    CDDIS               29-APR-21 19:33     PGM / RUN BY / DATE 
IGS BROADCAST EPHEMERIS FILE                                COMMENT             
teqc  2020Oct7      UNAVCO Archive Ops  20210429  0:13:     COMMENT             
  2021     4    28    0.125728547573D-07                    CORR TO SYSTEM TIME 
    18                                                      LEAP SECONDS        
                                                            END OF HEADER       
 1 21  4 28  0 15  0.0 0.785505399108D-04 0.000000000000D+00 0.000000000000D+00
   -0.696107031250D+04 0.256510734558D+00-0.000000000000D+00 0.000000000000D+00
    0.224039184570D+05-0.135529041290D+01-0.279396772385D-08 0.100000000000D+01
   -0.100278120117D+05-0.320204925537D+01 0.186264514923D-08 0.000000000000D+00
 2 21  4 28  0 15  0.0 0.476492568850D-03 0.909494701773D-12 0.000000000000D+00
    0.236202294922D+04-0.290727615356D-01-0.000000000000D+00 0.000000000000D+00
    0.229833481445D+05 0.147925186157D+01-0.279396772385D-08-0.400000000000D+01
    0.107924648438D+05-0.316246700287D+01-0.931322574616D-09 0.000000000000D+00
 3 21  4 28  0 15  0.0 0.349739566445D-04 0.909494701773D-12 0.174000000000D+04
    0.951076318359D+04-0.294396400452D+00-0.000000000000D+00 0.000000000000D+00
    0.889686328125D+04 0.298251247406D+01-0.931322574616D-09 0.500000000000D+01
    0.219712778320D+05-0.108714580536D+01-0.372529029846D-08 0.000000000000D+00
 4 21  4 28  0 15  0.0 0.843368470669D-04 0.181898940355D-11 0.000000000000D+00
    0.109881982422D+05-0.408665657043D+00-0.000000000000D+00 0.000000000000D+00
   -0.997276269531D+04 0.280945873261D+01 0.931322574616D-09 0.600000000000D+01
    0.207810400391D+05 0.156629276276D+01-0.279396772385D-08 0.000000000000D+00
 5 21  4 28  0 15  0.0 0.707348808646D-04 0.909494701773D-12 0.000000000000D+00
    0.655794433594D+04-0.299759864807D+00-0.000000000000D+00 0.000000000000D+00
   -0.233374184570D+05 0.106309700012D+01 0.279396772385D-08 0.100000000000D+01
    0.798836181641D+04 0.335659885407D+01-0.931322574616D-09 0.000000000000D+00
 6 21  4 28  0 15  0.0 0.196970999241D-03 0.000000000000D+00 0.000000000000D+00
   -0.352314843750D+04 0.209064483643D-01-0.000000000000D+00 0.000000000000D+00
   -0.224970502930D+05-0.158031845093D+01 0.279396772385D-08-0.400000000000D+01
   -0.115205517578D+05 0.307846260071D+01 0.186264514923D-08 0.000000000000D+00
 7 21  4 28  0 15  0.0-0.425158068538D-04-0.000000000000D+00 0.000000000000D+00
   -0.961464599609D+04 0.303240776062D+00-0.000000000000D+00 0.000000000000D+00
   -0.832681250000D+04-0.301816082001D+01 0.931322574616D-09 0.500000000000D+01
   -0.220751772461D+05 0.100050735474D+01 0.372529029846D-08 0.000000000000D+00
 8 21  4 28  0 15  0.0-0.587329268456D-04-0.909494701773D-12 0.000000000000D+00
   -0.110423427734D+05 0.395600318909D+00-0.000000000000D+00 0.000000000000D+00
    0.100513027344D+05-0.281159687042D+01-0.931322574616D-09 0.600000000000D+01
   -0.206153183594D+05-0.157970714569D+01 0.279396772385D-08 0.000000000000D+00
 9 21  4 28  0 15  0.0-0.989623367786D-05 0.181898940355D-11 0.102000000000D+04
   -0.136847207031D+05 0.134084510803D+01-0.186264514923D-08 0.000000000000D+00
   -0.174555317383D+05 0.107870006561D+01 0.186264514923D-08-0.200000000000D+01
   -0.125202666016D+05-0.297240543366D+01 0.279396772385D-08 0.000000000000D+00
10 21  4 28  0 15  0.0-0.683246180415D-04 0.000000000000D+00 0.900000000000D+03
   -0.214888662109D+05-0.496593475342D+00-0.558793544769D-08 0.000000000000D+00
   -0.133291708984D+05-0.158469200134D+00 0.931322574616D-09-0.700000000000D+01
    0.361532958984D+04-0.351851463318D+01 0.186264514923D-08 0.000000000000D+00
11 21  4 28  0 15  0.0-0.101048499346D-05-0.181898940355D-11 0.900000000000D+03
   -0.170585107422D+05-0.216554450989D+01-0.558793544769D-08 0.100000000000D+01
   -0.122771777344D+04-0.142569160461D+01 0.000000000000D+00 0.000000000000D+00
    0.189287817383D+05-0.204590225220D+01 0.000000000000D+00 0.000000000000D+00
12 21  4 28  0 15  0.0 0.224374234676D-03 0.363797880709D-11 0.000000000000D+00
   -0.232419677734D+04-0.247172069550D+01-0.279396772385D-08 0.000000000000D+00
    0.116383784180D+05-0.185168361664D+01-0.186264514923D-08-0.100000000000D+01
    0.225991909180D+05 0.701916694641D+00-0.186264514923D-08 0.000000000000D+00
13 21  4 28  0 15  0.0-0.540222972632D-04-0.000000000000D+00 0.000000000000D+00
    0.133769135742D+05-0.138578319550D+01 0.186264514923D-08 0.000000000000D+00
    0.173026669922D+05-0.115343379974D+01-0.186264514923D-08-0.200000000000D+01
    0.131096684570D+05 0.293203830719D+01-0.279396772385D-08 0.000000000000D+00
14 21  4 28  0 15  0.0 0.636167824268D-04 0.000000000000D+00 0.000000000000D+00
    0.214884575195D+05 0.601380348206D+00 0.651925802231D-08 0.000000000000D+00
    0.129344790039D+05 0.265329360962D+00-0.931322574616D-09-0.700000000000D+01
   -0.468233154297D+04 0.348506927490D+01-0.186264514923D-08 0.000000000000D+00
15 21  4 28  0 15  0.0 0.104126520455D-03-0.000000000000D+00 0.000000000000D+00
    0.168323081055D+05 0.216108036041D+01 0.651925802231D-08 0.000000000000D+00
    0.106925146484D+04 0.148652744293D+01 0.000000000000D+00 0.000000000000D+00
   -0.191193378906D+05 0.198400306702D+01 0.000000000000D+00 0.000000000000D+00
16 21  4 28  0 15  0.0-0.143703073263D-04-0.000000000000D+00 0.000000000000D+00
    0.106506054688D+04 0.246949577331D+01 0.186264514923D-08 0.000000000000D+00
   -0.124603081055D+05 0.177235698700D+01 0.186264514923D-08-0.100000000000D+01
   -0.222764902344D+05-0.862224578857D+00 0.186264514923D-08 0.000000000000D+00
17 21  4 28  0 15  0.0 0.419441610575D-03 0.272848410532D-11 0.000000000000D+00
    0.182327275391D+05-0.230057144165D+01 0.651925802231D-08 0.000000000000D+00
    0.975073730469D+03 0.829912185669D+00 0.000000000000D+00 0.400000000000D+01
   -0.177912651367D+05-0.231428146362D+01 0.000000000000D+00 0.000000000000D+00
18 21  4 28  0 15  0.0 0.746026635170D-04 0.909494701773D-12 0.000000000000D+00
    0.238505117188D+05-0.461067199707D+00 0.651925802231D-08 0.000000000000D+00
   -0.866011523438D+04-0.706777572632D-01 0.186264514923D-08-0.300000000000D+01
   -0.288923486328D+04-0.357460212707D+01-0.186264514923D-08 0.000000000000D+00
19 21  4 28  0 15  0.0-0.141506083310D-03-0.909494701773D-12 0.000000000000D+00
    0.176955385742D+05 0.156595039368D+01 0.279396772385D-08 0.000000000000D+00
   -0.131031791992D+05-0.846272468567D+00 0.186264514923D-08 0.300000000000D+01
    0.128774360352D+05-0.301193904877D+01-0.279396772385D-08 0.000000000000D+00
20 21  4 28  0 15  0.0-0.481074675918D-04-0.000000000000D+00 0.000000000000D+00
   -0.127270410156D+04 0.295112609863D+01-0.279396772385D-08 0.000000000000D+00
   -0.105496523438D+05-0.118621921539D+01 0.931322574616D-09 0.200000000000D+01
    0.231965268555D+05-0.373206138611D+00-0.186264514923D-08 0.000000000000D+00
21 21  4 28  0 15  0.0-0.204889103770D-03-0.272848410532D-11 0.900000000000D+03
   -0.190308247070D+05 0.220872688294D+01-0.558793544769D-08 0.000000000000D+00
   -0.228657714844D+03-0.759214401245D+00 0.000000000000D+00 0.400000000000D+01
    0.169912543945D+05 0.246128082275D+01 0.000000000000D+00 0.000000000000D+00
22 21  4 28  0 15  0.0-0.109965912998D-03-0.181898940355D-11 0.123000000000D+04
   -0.237380195312D+05 0.322238922119D+00-0.558793544769D-08 0.000000000000D+00
    0.900801171875D+04 0.127821922302D+00-0.186264514923D-08-0.300000000000D+01
    0.178859326172D+04 0.360740566254D+01 0.186264514923D-08 0.000000000000D+00
23 21  4 28  0 15  0.0 0.381374731660D-03 0.181898940355D-11 0.000000000000D+00
   -0.116105917969D+05-0.223947525024D+01-0.000000000000D+00 0.000000000000D+00
    0.136268686523D+05 0.110216712952D+01-0.186264514923D-08 0.300000000000D+01
   -0.181768920898D+05 0.225859928131D+01 0.279396772385D-08 0.000000000000D+00
24 21  4 28  0 15  0.0 0.405181199312D-04 0.909494701773D-12 0.000000000000D+00
    0.240173242188D+04-0.291821765900D+01 0.279396772385D-08 0.000000000000D+00
    0.106678569336D+05 0.120814037323D+01-0.931322574616D-09 0.200000000000D+01
   -0.230320263672D+05 0.254431724548D+00 0.186264514923D-08 0.000000000000D+00
 1 21  4 28  0 45  0.0 0.785514712334D-04 0.000000000000D+00 0.180000000000D+04
   -0.667472998047D+04 0.272893905640D-01-0.000000000000D+00 0.000000000000D+00
    0.192677934570D+05-0.210165023804D+01-0.186264514923D-08 0.100000000000D+01
   -0.153295766602D+05-0.265054225922D+01 0.279396772385D-08 0.000000000000D+00
 2 21  4 28  0 45  0.0 0.476494431496D-03 0.909494701773D-12 0.180000000000D+04
    0.252343408203D+04 0.170803070068D+00-0.000000000000D+00 0.000000000000D+00
    0.249118950195D+05 0.643644332886D+00-0.279396772385D-08-0.400000000000D+01
    0.475584130859D+04-0.350135612488D+01-0.000000000000D+00 0.000000000000D+00
 3 21  4 28  0 45  0.0 0.349758192897D-04 0.909494701773D-12 0.180000000000D+04
    0.937885107422D+04 0.132406234741D+00-0.000000000000D+00 0.000000000000D+00
    0.139786376953D+05 0.261660671234D+01-0.186264514923D-08 0.500000000000D+01
    0.191932504883D+05-0.197979354858D+01-0.279396772385D-08 0.000000000000D+00
 4 21  4 28  0 45  0.0 0.843405723572D-04 0.181898940355D-11 0.180000000000D+04
    0.106199423828D+05 0.147151947022D-01-0.000000000000D+00 0.000000000000D+00
   -0.460251123047D+04 0.310883808136D+01 0.000000000000D+00 0.600000000000D+01
    0.227634414062D+05 0.622165679932D+00-0.372529029846D-08 0.000000000000D+00
 5 21  4 28  0 45  0.0 0.707358121872D-04 0.909494701773D-12 0.180000000000D+04
    0.614222412109D+04-0.124533653259D+00 0.000000000000D+00 0.000000000000D+00
   -0.206802192383D+05 0.186670207977D+01 0.279396772385D-08 0.100000000000D+01
    0.136440522461D+05 0.288679885864D+01-0.186264514923D-08 0.000000000000D+00
